{
  "norad_id": 67327,
  "name": "STARLINK-36501",
  "history": [
    {
      "epoch": "2026-04-14T09:31:33.834432Z",
      "apogee_km": 484.02039300755587,
      "perigee_km": 482.17307443708796,
      "latitude_deg": -5.602665635545785e-05,
      "longitude_deg": 137.81132879656496,
      "height_km": 483.1913581840462,
      "semi_major_axis_km": 6861.233733722322,
      "eccentricity": 0.00013462,
      "inclination_deg": 42.9992,
      "raan_deg": 123.2763,
      "arg_perigee_deg": 249.8512,
      "mean_anomaly_deg": 110.2194,
      "mean_motion_rev_day": 15.27564091
    },
    {
      "epoch": "2026-04-15T12:12:13.986144Z",
      "apogee_km": 483.95552097359814,
      "perigee_km": 482.1455397030959,
      "latitude_deg": -3.751277493742798e-05,
      "longitude_deg": 90.27233253813345,
      "height_km": 483.0803612571676,
      "semi_major_axis_km": 6861.187530338347,
      "eccentricity": 0.0001319,
      "inclination_deg": 43.0008,
      "raan_deg": 117.0002,
      "arg_perigee_deg": 253.7539,
      "mean_anomaly_deg": 106.3167,
      "mean_motion_rev_day": 15.27579521
    },
    {
      "epoch": "2026-04-16T08:36:15.867072Z",
      "apogee_km": 483.97330028775923,
      "perigee_km": 482.0755030440587,
      "latitude_deg": -9.339022341415918e-06,
      "longitude_deg": 138.6261073570173,
      "height_km": 483.07918290878223,
      "semi_major_axis_km": 6861.161401665909,
      "eccentricity": 0.0001383,
      "inclination_deg": 43.0,
      "raan_deg": 112.1996,
      "arg_perigee_deg": 252.9525,
      "mean_anomaly_deg": 107.1175,
      "mean_motion_rev_day": 15.27588247
    },
    {
      "epoch": "2026-04-17T11:16:54.627744Z",
      "apogee_km": 483.9228295970943,
      "perigee_km": 482.0354737660891,
      "latitude_deg": -3.8004403922708666e-05,
      "longitude_deg": 91.09107247921631,
      "height_km": 483.0241771065287,
      "semi_major_axis_km": 6861.116151681591,
      "eccentricity": 0.00013754,
      "inclination_deg": 42.9996,
      "raan_deg": 105.9217,
      "arg_perigee_deg": 253.4713,
      "mean_anomaly_deg": 106.5987,
      "mean_motion_rev_day": 15.27603359
    },
    {
      "epoch": "2026-04-18T06:06:47.416608Z",
      "apogee_km": 483.4679720978165,
      "perigee_km": 482.53664104834206,
      "latitude_deg": -2.3424882547898414e-05,
      "longitude_deg": 163.4158597870011,
      "height_km": 483.2317373648058,
      "semi_major_axis_km": 6861.139306573079,
      "eccentricity": 6.787e-05,
      "inclination_deg": 43.0001,
      "raan_deg": 101.4898,
      "arg_perigee_deg": 192.8952,
      "mean_anomaly_deg": 167.1882,
      "mean_motion_rev_day": 15.27595626
    },
    {
      "epoch": "2026-04-19T10:21:36.113472Z",
      "apogee_km": 484.01314605202515,
      "perigee_km": 481.98060375292425,
      "latitude_deg": -3.6370077474029813e-06,
      "longitude_deg": 91.90651941121125,
      "height_km": 482.9687024184633,
      "semi_major_axis_km": 6861.133874902474,
      "eccentricity": 0.00014812,
      "inclination_deg": 42.9991,
      "raan_deg": 94.8434,
      "arg_perigee_deg": 258.9255,
      "mean_anomaly_deg": 101.143,
      "mean_motion_rev_day": 15.2759744
    },
    {
      "epoch": "2026-04-20T08:19:47.788896Z",
      "apogee_km": 484.20076345478265,
      "perigee_km": 481.9032257080571,
      "latitude_deg": -2.508942471599598e-05,
      "longitude_deg": 116.28537531604525,
      "height_km": 483.12670740020764,
      "semi_major_axis_km": 6861.188994581419,
      "eccentricity": 0.00016743,
      "inclination_deg": 43.0011,
      "raan_deg": 89.6732,
      "arg_perigee_deg": 254.9779,
      "mean_anomaly_deg": 105.0887,
      "mean_motion_rev_day": 15.27579032
    },
    {
      "epoch": "2026-04-21T09:26:18.150432Z",
      "apogee_km": 484.09317052278584,
      "perigee_km": 481.90199858186315,
      "latitude_deg": 1.724020718472521e-06,
      "longitude_deg": 92.72092830266243,
      "height_km": 483.00977174608204,
      "semi_major_axis_km": 6861.134584552324,
      "eccentricity": 0.00015968,
      "inclination_deg": 43.0029,
      "raan_deg": 83.7664,
      "arg_perigee_deg": 257.6104,
      "mean_anomaly_deg": 102.4569,
      "mean_motion_rev_day": 15.27597203
    },
    {
      "epoch": "2026-04-22T08:58:38.940384Z",
      "apogee_km": 483.9633606452762,
      "perigee_km": 482.09163497027475,
      "latitude_deg": 3.243860443119471e-05,
      "longitude_deg": 93.12891693052612,
      "height_km": 482.8510064402914,
      "semi_major_axis_km": 6861.164497807776,
      "eccentricity": 0.0001364,
      "inclination_deg": 43.0018,
      "raan_deg": 78.2277,
      "arg_perigee_deg": 267.1429,
      "mean_anomaly_deg": 92.9267,
      "mean_motion_rev_day": 15.27587213
    },
    {
      "epoch": "2026-04-23T08:30:59.889312Z",
      "apogee_km": 484.14024654423974,
      "perigee_km": 481.90666436957054,
      "latitude_deg": -2.0660640794349388e-05,
      "longitude_deg": 93.53485231448138,
      "height_km": 483.10622376736666,
      "semi_major_axis_km": 6861.160455456905,
      "eccentricity": 0.00016277,
      "inclination_deg": 43.0026,
      "raan_deg": 72.6877,
      "arg_perigee_deg": 254.1145,
      "mean_anomaly_deg": 105.9527,
      "mean_motion_rev_day": 15.27588563
    },
    {
      "epoch": "2026-04-24T04:55:01.968096Z",
      "apogee_km": 483.90338247163436,
      "perigee_km": 482.0871035442642,
      "latitude_deg": 4.980539164422184e-05,
      "longitude_deg": 141.8893425800245,
      "height_km": 482.6134204546341,
      "semi_major_axis_km": 6861.132243007949,
      "eccentricity": 0.00013236,
      "inclination_deg": 43.0026,
      "raan_deg": 67.8886,
      "arg_perigee_deg": 280.0674,
      "mean_anomaly_deg": 80.0029,
      "mean_motion_rev_day": 15.27597985
    },
    {
      "epoch": "2026-04-25T20:08:56.046048Z",
      "apogee_km": 484.07382476195835,
      "perigee_km": 481.9441250513473,
      "latitude_deg": 3.8995788700516784e-05,
      "longitude_deg": -97.43038270050566,
      "height_km": 483.0263675646889,
      "semi_major_axis_km": 6861.145974906653,
      "eccentricity": 0.0001552,
      "inclination_deg": 43.0026,
      "raan_deg": 58.6554,
      "arg_perigee_deg": 256.9553,
      "mean_anomaly_deg": 103.1126,
      "mean_motion_rev_day": 15.27593399
    },
    {
      "epoch": "2026-04-26T05:33:52.027488Z",
      "apogee_km": 483.9451974878066,
      "perigee_km": 481.9888222904283,
      "latitude_deg": -8.483800692560154e-07,
      "longitude_deg": 118.73563601663882,
      "height_km": 482.83442329725,
      "semi_major_axis_km": 6861.104009889117,
      "eccentricity": 0.00014257,
      "inclination_deg": 43.0041,
      "raan_deg": 56.4414,
      "arg_perigee_deg": 264.706,
      "mean_anomaly_deg": 95.3629,
      "mean_motion_rev_day": 15.27607414
    },
    {
      "epoch": "2026-04-27T01:57:54.516672Z",
      "apogee_km": 484.1806237765286,
      "perigee_km": 481.87431195230056,
      "latitude_deg": 2.284820105700633e-05,
      "longitude_deg": 167.08396355108826,
      "height_km": 483.16290717161104,
      "semi_major_axis_km": 6861.164467864414,
      "eccentricity": 0.00016807,
      "inclination_deg": 43.0044,
      "raan_deg": 51.6379,
      "arg_perigee_deg": 251.9062,
      "mean_anomaly_deg": 108.1607,
      "mean_motion_rev_day": 15.27587223
    },
    {
      "epoch": "2026-04-28T20:20:08.634624Z",
      "apogee_km": 483.9695510707179,
      "perigee_km": 482.05803445985293,
      "latitude_deg": -3.0892869241398348e-06,
      "longitude_deg": -120.18308578112898,
      "height_km": 483.2739960822704,
      "semi_major_axis_km": 6861.150792765285,
      "eccentricity": 0.0001393,
      "inclination_deg": 43.0041,
      "raan_deg": 41.6698,
      "arg_perigee_deg": 239.6254,
      "mean_anomaly_deg": 120.446,
      "mean_motion_rev_day": 15.2759179
    },
    {
      "epoch": "2026-04-29T18:18:20.391264Z",
      "apogee_km": 483.56920459924913,
      "perigee_km": 482.45769822612056,
      "latitude_deg": 8.81632730675732e-06,
      "longitude_deg": -95.80073184619819,
      "height_km": 482.7733525806327,
      "semi_major_axis_km": 6861.150451412685,
      "eccentricity": 8.1e-05,
      "inclination_deg": 43.0033,
      "raan_deg": 36.5034,
      "arg_perigee_deg": 271.7174,
      "mean_anomaly_deg": 88.3585,
      "mean_motion_rev_day": 15.27591904
    },
    {
      "epoch": "2026-04-30T11:34:03.356256Z",
      "apogee_km": 483.78068523489674,
      "perigee_km": 482.1668147642813,
      "latitude_deg": 2.8504933598912103e-05,
      "longitude_deg": 0.4975457123034462,
      "height_km": 482.87638273376564,
      "semi_major_axis_km": 6861.110749999589,
      "eccentricity": 0.00011761,
      "inclination_deg": 43.0053,
      "raan_deg": 32.4396,
      "arg_perigee_deg": 261.048,
      "mean_anomaly_deg": 99.0239,
      "mean_motion_rev_day": 15.27605163
    },
    {
      "epoch": "2026-05-02T02:47:58.081344Z",
      "apogee_km": 483.99237025942784,
      "perigee_km": 482.1494498147913,
      "latitude_deg": -3.0296338835581974e-05,
      "longitude_deg": 121.17676439777841,
      "height_km": 483.09494100148765,
      "semi_major_axis_km": 6861.207910037109,
      "eccentricity": 0.0001343,
      "inclination_deg": 43.0041,
      "raan_deg": 23.2081,
      "arg_perigee_deg": 254.4521,
      "mean_anomaly_deg": 105.6182,
      "mean_motion_rev_day": 15.27572715
    },
    {
      "epoch": "2026-05-03T18:01:52.924800Z",
      "apogee_km": 483.85851185814954,
      "perigee_km": 482.0924615040767,
      "latitude_deg": 8.219911610419957e-06,
      "longitude_deg": -118.14301008367508,
      "height_km": 483.4227779121946,
      "semi_major_axis_km": 6861.112486681112,
      "eccentricity": 0.0001287,
      "inclination_deg": 43.0042,
      "raan_deg": 13.978,
      "arg_perigee_deg": 220.5749,
      "mean_anomaly_deg": 139.5007,
      "mean_motion_rev_day": 15.27604583
    }
  ]
}